OBJECT_NAME,OBJECT_ID,EPOCH,MEAN_MOTION,ECCENTRICITY,INCLINATION,RA_OF_ASC_NODE,ARG_OF_PERICENTER,MEAN_ANOMALY,EPHEMERIS_TYPE,CLASSIFICATION_TYPE,NORAD_CAT_ID,ELEMENT_SET_NO,REV_AT_EPOCH,BSTAR,MEAN_MOTION_DOT,MEAN_MOTION_DDOT
SAUDISAT 5A,2018-102A,2026-06-27T04:24:37.766880,15.28148163,.0011318,97.3069,239.5721,98.7986,261.4536,0,U,43831,999,41720,.22886E-3,.6217E-4,0
SAUDISAT 5B,2018-102C,2026-06-27T04:49:22.173312,15.28399643,.0012046,97.3178,242.6768,100.5948,259.6649,0,U,43833,999,41732,.2123E-3,.5808E-4,0
GAOFEN-10R,2019-066A,2026-06-27T04:57:49.881312,14.83020697,.0007148,98.0500,131.8590,99.2703,260.9319,0,U,44622,999,36386,.14946E-3,.1161E-4,0
CARTOSAT-3,2019-081A,2026-06-27T04:02:37.751136,15.19208400,.0013286,97.4311,239.8750,116.5257,243.7342,0,U,44804,999,36498,.23577E-3,.4906E-4,0
GAOFEN-12 01,2019-082A,2026-06-27T05:13:44.732640,14.80466138,.0001899,97.8101,184.3325,59.9053,300.2347,0,U,44819,999,35557,.57125E-4,.386E-5,0
CSG-1,2019-092A,2026-06-27T04:16:11.914752,14.82161245,.0001457,97.8889,1.6357,90.0856,270.0524,0,U,44873,999,35295,.61401E-4,.437E-5,0
NEMO-HD,2020-061F,2026-06-27T04:05:54.307680,15.44790385,.0001777,97.1921,240.0234,74.2322,285.9122,0,U,46277,999,32352,.2433E-3,.11306E-3,0
SENTINEL-6A,2020-086A,2026-06-27T03:46:28.920288,12.80929979,.0007855,66.0409,114.3448,270.0104,90.0011,0,U,46984,999,26160,-.49762E-4,-.73E-6,0
CAS500-1,2021-022A,2026-06-27T04:48:03.593376,15.20183733,.0003595,97.3897,73.2507,245.7812,114.3048,0,U,47932,999,29228,.32379E-3,.6946E-4,0
GAOFEN-12 02,2021-026A,2026-06-27T05:31:13.247616,14.80303404,.0004446,97.9923,176.3696,184.3852,175.7321,0,U,48079,999,28324,.54509E-4,.362E-5,0
PLEIADES NEO 3,2021-034A,2026-06-27T04:19:48.343296,14.81673065,.0001401,97.8936,252.8031,88.1308,272.0065,0,U,48268,999,27913,.23372E-4,.132E-5,0
PLEIADES NEO 4,2021-073E,2026-06-27T05:08:24.655200,14.81668008,.0001325,97.8937,252.8327,86.9223,273.2142,0,U,49070,999,26285,.10906E-3,.806E-5,0
LANDSAT 9,2021-088A,2026-06-27T03:41:18.047040,14.57103516,.0001263,98.2278,248.2104,85.0483,275.0860,0,U,49260,999,25245,.80164E-4,.316E-5,0
CSG-2,2022-008A,2026-06-27T03:27:33.765984,14.82152476,.0001569,97.8888,1.5975,86.1885,273.9508,0,U,51444,999,23806,.10774E-3,.806E-5,0
GAOFEN-12 03,2022-069A,2026-06-27T04:39:29.717280,14.80052060,.0002375,97.8276,65.8118,92.8793,267.2691,0,U,52912,999,21609,.22018E-3,.1617E-4,0
SWOT,2022-173A,2026-06-27T04:56:56.821344,14.00170743,.0000288,77.6102,21.7842,85.6330,274.4855,0,U,54754,999,18055,.73014E-5,.8E-7,0
GAOFEN-12 04,2023-123A,2026-06-27T05:02:36.646368,14.79744421,.0003979,97.9116,96.0827,86.4159,273.7508,0,U,57654,999,15411,.13728E-3,.981E-5,0
PARS 1,2024-039Q,2026-06-27T05:14:50.885664,15.45927277,.0011482,97.4819,159.4554,82.3324,277.9228,0,U,59065,999,13019,.23748E-3,.11493E-3,0
RESURS-P 4,2024-061A,2026-06-27T04:33:57.847104,15.32185427,.0002786,97.2752,125.9148,114.8972,245.2560,0,U,59371,999,12529,.10258E-3,.3111E-4,0
LEGION 1,2024-081A,2026-06-27T04:32:24.656064,15.16731578,.0008547,97.5020,255.9394,342.6475,17.4465,0,U,59625,999,11905,.19358E-3,.3731E-4,0
LEGION 2,2024-081B,2026-06-27T05:15:47.219328,15.16710701,.0010011,97.5021,256.0664,305.3202,54.7095,0,U,59626,999,11906,.21944E-3,.4238E-4,0
ALOS-4 (DAICHI-4),2024-123A,2026-06-27T05:39:34.667424,14.79477205,.000158,97.9217,275.2677,96.5111,263.6280,0,U,60182,999,10736,.21126E-3,.1527E-4,0
LEGION 3,2024-146A,2026-06-27T03:30:51.564960,15.16023615,.0008618,45.0014,337.1405,227.8663,132.1483,0,U,60452,999,10353,.22517E-3,.4142E-4,0
LEGION 4,2024-146B,2026-06-27T03:35:23.456256,15.16105953,.0012643,45.0019,69.0331,2.5781,357.5161,0,U,60453,999,10238,.23145E-3,.4278E-4,0
SENTINEL-2C,2024-157A,2026-06-27T04:08:27.133728,14.30820373,.0000918,98.5692,252.8134,89.1947,270.9341,0,U,60989,999,9441,.55597E-4,.102E-5,0
IONOSFERA-M 1,2024-199A,2026-06-27T04:19:17.878656,14.22755988,.0002152,98.7162,51.2462,97.0060,263.1362,0,U,61735,999,12912,.38212E-4,.42E-6,0
IONOSFERA-M 2,2024-199B,2026-06-27T05:08:38.888736,14.22759326,.0000617,98.7161,51.1907,40.3229,319.7995,0,U,61736,999,13225,.45341E-4,.58E-6,0
PRSC-EO1,2025-012A,2026-06-27T05:07:23.210976,15.17731236,.0005596,97.4229,250.4772,210.5093,149.5816,0,U,62725,999,7971,.39265E-3,.7861E-4,0
BIOMASS,2025-090A,2026-06-25T10:04:41.476800,14.67536962,.0001429,98.0741,3.6181,94.8977,265.2391,0,U,63772,999,6189,.12495E-3,.661E-5,0
GOSAT-GW (IBUKI GW),2025-141A,2026-06-27T03:28:16.993632,14.67554076,.0001442,98.0568,115.2999,84.1965,275.9404,0,U,64694,999,5330,.15977E-3,.859E-5,0
IONOSFERA-M 3,2025-155A,2026-06-27T04:05:42.264384,14.21488030,.0001566,98.6028,139.8244,140.1533,219.9760,0,U,64876,999,4782,.35275E-4,.34E-6,0
