SAUDISAT 5A             
1 43831U 18102A   26178.18377045  .00006217  00000+0  22886-3 0  9994
2 43831  97.3069 239.5721 0011318  98.7986 261.4536 15.28148163417205
SAUDISAT 5B             
1 43833U 18102C   26178.20095108  .00005808  00000+0  21230-3 0  9993
2 43833  97.3178 242.6768 0012046 100.5948 259.6649 15.28399643417321
GAOFEN-10R              
1 44622U 19066A   26178.20682733  .00001161  00000+0  14946-3 0  9990
2 44622  98.0500 131.8590 0007148  99.2703 260.9319 14.83020697363865
CARTOSAT-3              
1 44804U 19081A   26178.16849249  .00004906  00000+0  23577-3 0  9991
2 44804  97.4311 239.8750 0013286 116.5257 243.7342 15.19208400364983
GAOFEN-12 01            
1 44819U 19082A   26178.21787885  .00000386  00000+0  57125-4 0  9996
2 44819  97.8101 184.3325 0001899  59.9053 300.2347 14.80466138355573
CSG-1                   
1 44873U 19092A   26178.17791568  .00000437  00000+0  61401-4 0  9994
2 44873  97.8889   1.6357 0001457  90.0856 270.0524 14.82161245352952
NEMO-HD                 
1 46277U 20061F   26178.17076745  .00011306  00000+0  24330-3 0  9991
2 46277  97.1921 240.0234 0001777  74.2322 285.9122 15.44790385323524
SENTINEL-6A             
1 46984U 20086A   26178.15727917 -.00000073  00000+0 -49762-4 0  9993
2 46984  66.0409 114.3448 0007855 270.0104  90.0011 12.80929979261604
CAS500-1                
1 47932U 21022A   26178.20004159  .00006946  00000+0  32379-3 0  9998
2 47932  97.3897  73.2507 0003595 245.7812 114.3048 15.20183733292282
GAOFEN-12 02            
1 48079U 21026A   26178.23001444  .00000362  00000+0  54509-4 0  9998
2 48079  97.9923 176.3696 0004446 184.3852 175.7321 14.80303404283248
PLEIADES NEO 3          
1 48268U 21034A   26178.18042064  .00000132  00000+0  23372-4 0  9993
2 48268  97.8936 252.8031 0001401  88.1308 272.0065 14.81673065279132
PLEIADES NEO 4          
1 49070U 21073E   26178.21417425  .00000806  00000+0  10906-3 0  9995
2 49070  97.8937 252.8327 0001325  86.9223 273.2142 14.81668008262851
LANDSAT 9               
1 49260U 21088A   26178.15368110  .00000316  00000+0  80164-4 0  9991
2 49260  98.2278 248.2104 0001263  85.0483 275.0860 14.57103516252459
CSG-2                   
1 51444U 22008A   26178.14414081  .00000806  00000+0  10774-3 0  9992
2 51444  97.8888   1.5975 0001569  86.1885 273.9508 14.82152476238065
GAOFEN-12 03            
1 52912U 22069A   26178.19409395  .00001617  00000+0  22018-3 0  9992
2 52912  97.8276  65.8118 0002375  92.8793 267.2691 14.80052060216091
SWOT                    
1 54754U 22173A   26178.20621321  .00000008  00000+0  73014-5 0  9998
2 54754  77.6102  21.7842 0000288  85.6330 274.4855 14.00170743180558
GAOFEN-12 04            
1 57654U 23123A   26178.21014637  .00000981  00000+0  13728-3 0  9997
2 57654  97.9116  96.0827 0003979  86.4159 273.7508 14.79744421154112
PARS 1                  
1 59065U 24039Q   26178.21864451  .00011493  00000+0  23748-3 0  9992
2 59065  97.4819 159.4554 0011482  82.3324 277.9228 15.45927277130196
RESURS-P 4              
1 59371U 24061A   26178.19025286  .00003111  00000+0  10258-3 0  9999
2 59371  97.2752 125.9148 0002786 114.8972 245.2560 15.32185427125295
LEGION 1                
1 59625U 24081A   26178.18917426  .00003731  00000+0  19358-3 0  9996
2 59625  97.5020 255.9394 0008547 342.6475  17.4465 15.16731578119051
LEGION 2                
1 59626U 24081B   26178.21929652  .00004238  00000+0  21944-3 0  9992
2 59626  97.5021 256.0664 0010011 305.3202  54.7095 15.16710701119067
ALOS-4 (DAICHI-4)       
1 60182U 24123A   26178.23581791  .00001527  00000+0  21126-3 0  9998
2 60182  97.9217 275.2677 0001580  96.5111 263.6280 14.79477205107367
LEGION 3                
1 60452U 24146A   26178.14643015  .00004142  00000+0  22517-3 0  9992
2 60452  45.0014 337.1405 0008618 227.8663 132.1483 15.16023615103537
LEGION 4                
1 60453U 24146B   26178.14957704  .00004278  00000+0  23145-3 0  9994
2 60453  45.0019  69.0331 0012643   2.5781 357.5161 15.16105953102388
SENTINEL-2C             
1 60989U 24157A   26178.17253627  .00000102  00000+0  55597-4 0  9995
2 60989  98.5692 252.8134 0000918  89.1947 270.9341 14.30820373 94419
IONOSFERA-M 1           
1 61735U 24199A   26178.18006804  .00000042  00000+0  38212-4 0  9993
2 61735  98.7162  51.2462 0002152  97.0060 263.1362 14.22755988129128
IONOSFERA-M 2           
1 61736U 24199B   26178.21433899  .00000058  00000+0  45341-4 0  9994
2 61736  98.7161  51.1907 0000617  40.3229 319.7995 14.22759326132251
PRSC-EO1                
1 62725U 25012A   26178.21346309  .00007861  00000+0  39265-3 0  9993
2 62725  97.4229 250.4772 0005596 210.5093 149.5816 15.17731236 79713
BIOMASS                 
1 63772U 25090A   26176.41992450  .00000661  00000+0  12495-3 0  9993
2 63772  98.0741   3.6181 0001429  94.8977 265.2391 14.67536962 61896
GOSAT-GW (IBUKI GW)     
1 64694U 25141A   26178.14464113  .00000859  00000+0  15977-3 0  9993
2 64694  98.0568 115.2999 0001442  84.1965 275.9404 14.67554076 53304
IONOSFERA-M 3           
1 64876U 25155A   26178.17062806  .00000034  00000+0  35275-4 0  9995
2 64876  98.6028 139.8244 0001566 140.1533 219.9760 14.21488030 47828
